GLOBALSTAR M069         
1 31573U 07020C   26116.97194225 -.00000119  00000+0 -24233-3 0  9992
2 31573  52.0056  37.0827 0002370  45.9686  35.5462 12.23469772872539
GLOBALSTAR M072         
1 31574U 07020D   26116.82684948 -.00000091  00000+0 -91619-4 0  9995
2 31574  51.9927 236.9812 0001491 185.7627 345.2294 11.91657334868851
GLOBALSTAR M066         
1 32265U 07048C   26116.56113363 -.00000108  00000+0 -11872-3 0  9993
2 32265  51.9583 206.1171 0004281 290.6622  82.9381 12.30387851853871
GLOBALSTAR M079         
1 37188U 10054A   26116.75626583 -.00000093  00000+0  60735-4 0  9992
2 37188  52.0041 265.2334 0000571 134.1146 334.8593 12.62265151716054
GLOBALSTAR M074         
1 37189U 10054B   26116.87308110 -.00000105  00000+0 -62455-5 0  9996
2 37189  52.0015 264.1512 0000647 104.6529  55.1678 12.62267580716676
GLOBALSTAR M076         
1 37190U 10054C   26116.70879409 -.00000087  00000+0  91779-4 0  9992
2 37190  52.0030 264.8488 0000423 103.4600 270.3000 12.62272365716377
GLOBALSTAR M077         
1 37191U 10054D   26116.85046507 -.00000080  00000+0 -29555-4 0  9991
2 37191  51.9973 309.5972 0003310  82.9964  18.8052 11.67547494715147
GLOBALSTAR M075         
1 37192U 10054E   26116.82150929 -.00000084  00000+0  11260-3 0  9999
2 37192  51.9953 306.5906 0000825 101.1788   4.3177 12.62266122715450
GLOBALSTAR M073         
1 37193U 10054F   26116.75563179 -.00000110  00000+0 -36945-4 0  9996
2 37193  52.0058 220.8506 0000366 150.9676  14.0260 12.62266481717430
GLOBALSTAR M083         
1 37739U 11033A   26116.84911959 -.00000095  00000+0  49404-4 0  9998
2 37739  51.9837 168.8649 0000226 190.0335 341.6158 12.62262827686463
GLOBALSTAR M088         
1 37740U 11033B   26116.86869639 -.00000102  00000+0  98257-5 0  9999
2 37740  52.0212  75.1065 0000460  56.1576 322.4421 12.62263118682016
GLOBALSTAR M091         
1 37741U 11033C   26116.97443575 -.00000103  00000+0  15435-5 0  9997
2 37741  52.0018  37.8254 0000545  82.9775 357.7897 12.62262792682811
GLOBALSTAR M085         
1 37742U 11033D   26116.96635782 -.00000082  00000+0  11989-3 0  9994
2 37742  52.0146 349.0996 0000703 100.7502   3.4811 12.62262879683322
GLOBALSTAR M081         
1 37743U 11033E   26116.89370538 -.00000082  00000+0  12144-3 0  9996
2 37743  51.9985 351.8161 0000646  81.0202 292.1901 12.62263685683469
GLOBALSTAR M089         
1 37744U 11033F   26116.77480192 -.00000077  00000+0  14961-3 0  9995
2 37744  51.9937 306.3476 0000826  77.5027 295.5604 12.62265994684290
GLOBALSTAR M084         
1 38040U 11080A   26116.47127244 -.00000100  00000+0  23706-4 0  9995
2 38040  51.9993 174.7249 0000200  65.6178 307.4047 12.62266632662232
GLOBALSTAR M080         
1 38041U 11080B   26116.87408899 -.00000094  00000+0  55495-4 0  9990
2 38041  52.0042 175.1992 0000732 142.8037  31.3257 12.62268533662409
GLOBALSTAR M082         
1 38042U 11080C   26116.93618284 -.00000081  00000+0  12898-3 0  9994
2 38042  52.0050 130.5039 0000365 144.2797 242.2391 12.62269367663125
GLOBALSTAR M092         
1 38043U 11080D   26116.70305656 -.00000103  00000+0  59238-5 0  9992
2 38043  52.0084 221.6086 0000514 121.2924  44.7277 12.62266710661541
GLOBALSTAR M090         
1 38044U 11080E   26116.32672905 -.00000088  00000+0  89293-4 0  9990
2 38044  52.0100 126.2978 0000080 111.1702 263.6694 12.62268299663160
GLOBALSTAR M086         
1 38045U 11080F   26116.77979904 -.00000079  00000+0  13933-3 0  9996
2 38045  51.9872 124.9328 0000867 305.0853 227.0783 12.62285511663162
GLOBALSTAR M097         
1 39072U 13005A   26116.93017864 -.00000103  00000+0  28414-5 0  9992
2 39072  52.0065  39.3609 0000431  76.9512 283.1403 12.62260087610438
GLOBALSTAR M093         
1 39073U 13005B   26116.74555714 -.00000097  00000+0  36744-4 0  9999
2 39073  52.0127  33.2528 0000318  84.4466 275.6437 12.62264610610368
GLOBALSTAR M094         
1 39074U 13005C   26116.90398364 -.00000076  00000+0  15308-3 0  9993
2 39074  51.9962 306.9425 0000652 113.9715 246.1220 12.62267888611999
GLOBALSTAR M096         
1 39075U 13005D   26116.83811495 -.00000087  00000+0  94694-4 0  9999
2 39075  52.0099 355.9026 0000650  95.0362 265.0579 12.62264360610909
GLOBALSTAR M078         
1 39076U 13005E   26116.57347500 -.00000105  00000+0 -78601-5 0  9995
2 39076  51.9869  80.7834 0001040 128.5315 231.5645 12.62266026609492
GLOBALSTAR M095         
1 39077U 13005F   26116.60029011 -.00000104  00000+0 -19595-5 0  9990
2 39077  52.0075  78.2339 0000367 129.7809 230.3090 12.62267338609351
GLOBALSTAR M087         
1 52888U 22064A   26116.53455976 -.00000098  00000+0  31301-4 0  9994
2 52888  51.9994 219.7073 0000596 153.4691 206.6206 12.62268388184616
